{ "53815": {"name": "STRIX-1", "norad_id": "53815", "line1": "1 53815U 22113A   26187.28502464  .00023478  00000+0  57570-3 0  9996", "line2": "2 53815  97.4478 249.6592 0005059 155.4954 204.6534 15.40710544210381", "country": "Japan", "operator": "Synspective", "sensor": "SAR", "resolution_m": 1.0, "notes": "book:StriX- \u03b2", "fetched_at": 1783341784.377271, "stale": false}, "59224": {"name": "STRIX-3", "norad_id": "59224", "line1": "1 59224U 24047A   26187.27536436  .00008133  00000+0  38321-3 0  9993", "line2": "2 59224  97.6633 163.2362 0013087   6.4776 353.6625 15.19708929127641", "country": "Japan", "operator": "Synspective", "sensor": "SAR", "resolution_m": 1.0, "notes": "book:StriX- \u03b2", "fetched_at": 1783341784.7215738, "stale": false}, "60352": {"name": "STRIX-4", "norad_id": "60352", "line1": "1 60352U 24137A   26187.31196530  .00012151  00000+0  37842-3 0  9991", "line2": "2 60352  43.0142 176.1553 0015966  68.6568 291.5989 15.33122454106950", "country": "Japan", "operator": "Synspective", "sensor": "SAR", "resolution_m": 1.0, "notes": "book:StriX- \u03b2", "fetched_at": 1783341785.056296, "stale": false}, "62406": {"name": "STRIX-2", "norad_id": "62406", "line1": "1 62406U 24248A   26187.30316359  .00005787  00000+0  36808-3 0  9996", "line2": "2 62406  97.6291 142.8349 0013659 270.2517  89.7147 15.09125555 84470", "country": "Japan", "operator": "Synspective", "sensor": "SAR", "resolution_m": 1.0, "notes": "book:StriX- \u03b2", "fetched_at": 1783341785.389935, "stale": false}, "65971": {"name": "STRIX-5", "norad_id": "65971", "line1": "1 65971U 25229A   26187.02309102  .00003449  00000+0  25187-3 0  9994", "line2": "2 65971  41.9262 182.9384 0036728 178.3248 181.7707 15.04549711 39817", "country": "Japan", "operator": "Synspective", "sensor": "SAR", "resolution_m": 1.0, "notes": "book:StriX- \u03b2", "fetched_at": 1783341785.7258437, "stale": false}, "68291": {"name": "STRIX-6", "norad_id": "68291", "line1": "1 68291U 26056A   26186.91117946  .00003586  00000+0  30296-3 0  9990", "line2": "2 68291  50.2819 261.2794 0016571 315.6054  44.3566 15.00299258 16082", "country": "Japan", "operator": "Synspective", "sensor": "SAR", "resolution_m": 1.0, "notes": "book:StriX- \u03b2", "fetched_at": 1783341786.059062, "stale": false}}