{"fetched_at":"2026-07-06T18:35:57.555Z","source":"https://celestrak.org/NORAD/elements/gp.php?NAME=STRIX&FORMAT=JSON","constellation":"synspective","records":[{"OBJECT_NAME":"STRIX-1","OBJECT_ID":"2022-113A","EPOCH":"2026-07-06T06:50:26.128896","CLASSIFICATION_TYPE":"U","MEAN_MOTION":15.40710544,"ECCENTRICITY":0.00050595,"INCLINATION":97.4478,"RA_OF_ASC_NODE":249.6592,"ARG_OF_PERICENTER":155.4954,"MEAN_ANOMALY":204.6534,"EPHEMERIS_TYPE":0,"NORAD_CAT_ID":53815,"ELEMENT_SET_NO":999,"REV_AT_EPOCH":21038,"BSTAR":0.00057569946,"MEAN_MOTION_DOT":0.00023478,"MEAN_MOTION_DDOT":0},{"OBJECT_NAME":"STRIX-3","OBJECT_ID":"2024-047A","EPOCH":"2026-07-06T06:36:31.480704","CLASSIFICATION_TYPE":"U","MEAN_MOTION":15.19708929,"ECCENTRICITY":0.00130879,"INCLINATION":97.6633,"RA_OF_ASC_NODE":163.2362,"ARG_OF_PERICENTER":6.4776,"MEAN_ANOMALY":353.6625,"EPHEMERIS_TYPE":0,"NORAD_CAT_ID":59224,"ELEMENT_SET_NO":999,"REV_AT_EPOCH":12764,"BSTAR":0.0003832092,"MEAN_MOTION_DOT":0.00008133,"MEAN_MOTION_DDOT":0},{"OBJECT_NAME":"STRIX-4","OBJECT_ID":"2024-137A","EPOCH":"2026-07-06T07:29:13.801920","CLASSIFICATION_TYPE":"U","MEAN_MOTION":15.33122454,"ECCENTRICITY":0.00159665,"INCLINATION":43.0142,"RA_OF_ASC_NODE":176.1553,"ARG_OF_PERICENTER":68.6568,"MEAN_ANOMALY":291.5989,"EPHEMERIS_TYPE":0,"NORAD_CAT_ID":60352,"ELEMENT_SET_NO":999,"REV_AT_EPOCH":10695,"BSTAR":0.00037841659,"MEAN_MOTION_DOT":0.00012151,"MEAN_MOTION_DDOT":0},{"OBJECT_NAME":"STRIX-2","OBJECT_ID":"2024-248A","EPOCH":"2026-07-06T07:16:33.334176","CLASSIFICATION_TYPE":"U","MEAN_MOTION":15.09125555,"ECCENTRICITY":0.00136596,"INCLINATION":97.6291,"RA_OF_ASC_NODE":142.8349,"ARG_OF_PERICENTER":270.2517,"MEAN_ANOMALY":89.7147,"EPHEMERIS_TYPE":0,"NORAD_CAT_ID":62406,"ELEMENT_SET_NO":999,"REV_AT_EPOCH":8447,"BSTAR":0.00036808026,"MEAN_MOTION_DOT":0.00005787,"MEAN_MOTION_DDOT":0},{"OBJECT_NAME":"STRIX-5","OBJECT_ID":"2025-229A","EPOCH":"2026-07-06T00:33:15.064128","CLASSIFICATION_TYPE":"U","MEAN_MOTION":15.04549711,"ECCENTRICITY":0.00367283,"INCLINATION":41.9262,"RA_OF_ASC_NODE":182.9384,"ARG_OF_PERICENTER":178.3248,"MEAN_ANOMALY":181.7707,"EPHEMERIS_TYPE":0,"NORAD_CAT_ID":65971,"ELEMENT_SET_NO":999,"REV_AT_EPOCH":3981,"BSTAR":0.00025187023,"MEAN_MOTION_DOT":0.00003449,"MEAN_MOTION_DDOT":0},{"OBJECT_NAME":"STRIX-6","OBJECT_ID":"2026-056A","EPOCH":"2026-07-05T21:52:05.905344","CLASSIFICATION_TYPE":"U","MEAN_MOTION":15.00299258,"ECCENTRICITY":0.00165714,"INCLINATION":50.2819,"RA_OF_ASC_NODE":261.2794,"ARG_OF_PERICENTER":315.6054,"MEAN_ANOMALY":44.3566,"EPHEMERIS_TYPE":0,"NORAD_CAT_ID":68291,"ELEMENT_SET_NO":999,"REV_AT_EPOCH":1608,"BSTAR":0.0003029569,"MEAN_MOTION_DOT":0.00003586,"MEAN_MOTION_DDOT":0}]}
